{
  "norad_id": 50185,
  "name": "STARLINK-3279",
  "history": [
    {
      "epoch": "2026-03-28T14:55:09.497280",
      "apogee_km": 540.6927736923908,
      "perigee_km": 538.816641461297,
      "latitude_deg": -50.946207770966986,
      "longitude_deg": -21.822780800051987,
      "semi_major_axis_km": 6917.891707576844,
      "eccentricity": 0.0001356,
      "inclination_deg": 53.2163,
      "raan_deg": 164.1703,
      "arg_perigee_deg": 89.9029,
      "mean_anomaly_deg": 270.2118,
      "mean_motion_rev_day": 15.08836297
    }
  ]
}