{"fetched_at":"2026-03-29T16:36:15Z","count":15609,"tles":[{"name":"STARLINK-3279","line1":"1 50185U 21125AF  26087.62163770  .00003970  00000+0  26743-3 0  9998","line2":"2 50185  53.2163 164.1703 0001356  89.9029 270.2118 15.08836297239469","category":"Starlink"}]}